*******************************************************************************
Ephemeris / WWW_USER Thu Dec  5 18:37:34 2024 Pasadena, USA      / Horizons    
*******************************************************************************
Target body name: 62412 (2000 SY178)              {source: JPL#44}
Center body name: Earth (399)                     {source: DE441}
Center-site name: Mauna Kea
*******************************************************************************
Start time      : A.D. 2018-Nov-11 03:53:00.0000 UT      
Stop  time      : A.D. 2018-Nov-11 16:18:00.0000 UT      
Step-size       : 1 minutes
*******************************************************************************
Target pole/equ : undefined
Target radii    : 5.187 km                                                     
Center geodetic : 204.5278, 19.8260847, 4.21024   {E-lon(deg),Lat(deg),Alt(km)}
Center cylindric: 204.5278, 6006.35451, 2151.0229 {E-lon(deg),Dxy(km),Dz(km)}
Center pole/equ : ITRF93                          {East-longitude positive}
Center radii    : 6378.137, 6378.137, 6356.752 km {Equator_a, b, pole_c}       
Target primary  : Sun
Vis. interferer : MOON (R_eq= 1737.400) km        {source: DE441}
Rel. light bend : Sun                             {source: DE441}
Rel. lght bnd GM: 1.3271E+11 km^3/s^2                                          
Small-body perts: Yes                             {source: SB441-N16}
Atmos refraction: NO (AIRLESS)
RA format       : HMS
Time format     : CAL 
Calendar mode   : Mixed Julian/Gregorian
RTS-only print  : NO       
EOP file        : eop.241205.p250303                                           
EOP coverage    : DATA-BASED 1962-JAN-20 TO 2024-DEC-05. PREDICTS-> 2025-MAR-02
Units conversion: 1 au= 149597870.700 km, c= 299792.458 km/s, 1 day= 86400.0 s 
Table cut-offs 1: Elevation (-90.0deg=NO ),Airmass (>38.000=NO), Daylight (YES)
Table cut-offs 2: Solar elongation (  0.0,180.0=NO ),Local Hour Angle( 0.0=NO )
Table cut-offs 3: RA/DEC angular rate (     0.0=NO )                           
*******************************************************************************
Initial IAU76/J2000 heliocentric ecliptic osculating elements (au, days, deg.):
  EPOCH=  2458127.5 ! 2018-Jan-09.00 (TDB)         Residual RMS= .2787         
   EC= .08141730682229319  QR= 2.89613208739257    TP= 2458420.6685284483      
   OM= 329.1525583823792   W=  163.0619562799197   IN= 4.73619265468861        
  Equivalent ICRF heliocentric cartesian coordinates (au, au/d):
   X= 8.831945932166756E-01  Y= 2.532168596675914E+00  Z= 1.360803999508301E+00
  VX=-9.867256226021401E-03 VY= 2.254941400948641E-03 VZ= 7.028227572403328E-04
Asteroid physical parameters (km, seconds, rotational period in hours):        
   GM= n.a.                RAD= 5.187              ROTPER= 3.33                
   H= 13.88                G= .150                 B-V= n.a.                   
                           ALBEDO= .065            STYP= n.a.                  
*******************************************************************************
 Date__(UT)__HR:MN     R.A._________(ICRF)_________DEC
******************************************************
$$SOE
 2018-Nov-11 10:02     10 26 08.625870 +10 59 50.27894
 2018-Nov-11 10:03     10 26 08.668650 +10 59 50.00608
 2018-Nov-11 10:04     10 26 08.711426 +10 59 49.73323
 2018-Nov-11 10:05     10 26 08.754199 +10 59 49.46038
 2018-Nov-11 10:06     10 26 08.796968 +10 59 49.18754
 2018-Nov-11 10:07     10 26 08.839734 +10 59 48.91470
 2018-Nov-11 10:08     10 26 08.882495 +10 59 48.64186
 2018-Nov-11 10:09     10 26 08.925253 +10 59 48.36903
 2018-Nov-11 10:10     10 26 08.968007 +10 59 48.09620
 2018-Nov-11 10:11     10 26 09.010758 +10 59 47.82338
 2018-Nov-11 10:12     10 26 09.053505 +10 59 47.55057
 2018-Nov-11 10:13     10 26 09.096248 +10 59 47.27775
 2018-Nov-11 10:14     10 26 09.138987 +10 59 47.00495
 2018-Nov-11 10:15     10 26 09.181722 +10 59 46.73214
 2018-Nov-11 10:16     10 26 09.224454 +10 59 46.45934
 2018-Nov-11 10:17     10 26 09.267182 +10 59 46.18655
 2018-Nov-11 10:18     10 26 09.309906 +10 59 45.91376
 2018-Nov-11 10:19     10 26 09.352627 +10 59 45.64097
 2018-Nov-11 10:20     10 26 09.395343 +10 59 45.36819
 2018-Nov-11 10:21     10 26 09.438056 +10 59 45.09541
 2018-Nov-11 10:22     10 26 09.480765 +10 59 44.82264
 2018-Nov-11 10:23     10 26 09.523471 +10 59 44.54987
 2018-Nov-11 10:24     10 26 09.566172 +10 59 44.27711
 2018-Nov-11 10:25     10 26 09.608870 +10 59 44.00435
 2018-Nov-11 10:26     10 26 09.651564 +10 59 43.73159
 2018-Nov-11 10:27     10 26 09.694254 +10 59 43.45884
 2018-Nov-11 10:28     10 26 09.736940 +10 59 43.18609
 2018-Nov-11 10:29     10 26 09.779623 +10 59 42.91334
 2018-Nov-11 10:30     10 26 09.822302 +10 59 42.64060
 2018-Nov-11 10:31     10 26 09.864977 +10 59 42.36786
 2018-Nov-11 10:32     10 26 09.907648 +10 59 42.09513
 2018-Nov-11 10:33     10 26 09.950315 +10 59 41.82240
 2018-Nov-11 10:34     10 26 09.992978 +10 59 41.54967
 2018-Nov-11 10:35     10 26 10.035638 +10 59 41.27695
 2018-Nov-11 10:36     10 26 10.078294 +10 59 41.00423
 2018-Nov-11 10:37     10 26 10.120945 +10 59 40.73151
 2018-Nov-11 10:38     10 26 10.163593 +10 59 40.45880
 2018-Nov-11 10:39     10 26 10.206238 +10 59 40.18609
 2018-Nov-11 10:40     10 26 10.248878 +10 59 39.91338
 2018-Nov-11 10:41     10 26 10.291514 +10 59 39.64068
 2018-Nov-11 10:42     10 26 10.334147 +10 59 39.36798
 2018-Nov-11 10:43     10 26 10.376776 +10 59 39.09529
 2018-Nov-11 10:44     10 26 10.419401 +10 59 38.82259
 2018-Nov-11 10:45     10 26 10.462022 +10 59 38.54991
 2018-Nov-11 10:46     10 26 10.504639 +10 59 38.27722
 2018-Nov-11 10:47     10 26 10.547252 +10 59 38.00454
 2018-Nov-11 10:48     10 26 10.589862 +10 59 37.73186
 2018-Nov-11 10:49     10 26 10.632467 +10 59 37.45918
 2018-Nov-11 10:50     10 26 10.675069 +10 59 37.18650
 2018-Nov-11 10:51     10 26 10.717667 +10 59 36.91383
 2018-Nov-11 10:52     10 26 10.760260 +10 59 36.64117
 2018-Nov-11 10:53     10 26 10.802850 +10 59 36.36850
 2018-Nov-11 10:54     10 26 10.845437 +10 59 36.09584
 2018-Nov-11 10:55     10 26 10.888019 +10 59 35.82318
 2018-Nov-11 10:56     10 26 10.930597 +10 59 35.55052
 2018-Nov-11 10:57     10 26 10.973171 +10 59 35.27787
 2018-Nov-11 10:58     10 26 11.015742 +10 59 35.00521
 2018-Nov-11 10:59     10 26 11.058309 +10 59 34.73256
 2018-Nov-11 11:00  r  10 26 11.100871 +10 59 34.45992
 2018-Nov-11 11:01     10 26 11.143430 +10 59 34.18727
 2018-Nov-11 11:02     10 26 11.185985 +10 59 33.91463
 2018-Nov-11 11:03     10 26 11.228536 +10 59 33.64199
 2018-Nov-11 11:04     10 26 11.271083 +10 59 33.36935
 2018-Nov-11 11:05     10 26 11.313626 +10 59 33.09672
 2018-Nov-11 11:06     10 26 11.356165 +10 59 32.82409
 2018-Nov-11 11:07     10 26 11.398701 +10 59 32.55146
 2018-Nov-11 11:08     10 26 11.441232 +10 59 32.27883
 2018-Nov-11 11:09     10 26 11.483759 +10 59 32.00620
 2018-Nov-11 11:10     10 26 11.526283 +10 59 31.73358
 2018-Nov-11 11:11     10 26 11.568803 +10 59 31.46096
 2018-Nov-11 11:12     10 26 11.611318 +10 59 31.18834
 2018-Nov-11 11:13     10 26 11.653830 +10 59 30.91572
 2018-Nov-11 11:14     10 26 11.696338 +10 59 30.64310
 2018-Nov-11 11:15     10 26 11.738842 +10 59 30.37049
 2018-Nov-11 11:16     10 26 11.781342 +10 59 30.09788
 2018-Nov-11 11:17     10 26 11.823838 +10 59 29.82527
 2018-Nov-11 11:18     10 26 11.866330 +10 59 29.55266
 2018-Nov-11 11:19     10 26 11.908818 +10 59 29.28005
 2018-Nov-11 11:20     10 26 11.951303 +10 59 29.00745
 2018-Nov-11 11:21     10 26 11.993783 +10 59 28.73484
 2018-Nov-11 11:22     10 26 12.036259 +10 59 28.46224
 2018-Nov-11 11:23     10 26 12.078732 +10 59 28.18964
 2018-Nov-11 11:24     10 26 12.121201 +10 59 27.91704
 2018-Nov-11 11:25     10 26 12.163665 +10 59 27.64444
 2018-Nov-11 11:26     10 26 12.206126 +10 59 27.37185
 2018-Nov-11 11:27     10 26 12.248583 +10 59 27.09925
 2018-Nov-11 11:28     10 26 12.291035 +10 59 26.82666
 2018-Nov-11 11:29     10 26 12.333484 +10 59 26.55407
 2018-Nov-11 11:30     10 26 12.375929 +10 59 26.28148
 2018-Nov-11 11:31     10 26 12.418370 +10 59 26.00889
 2018-Nov-11 11:32     10 26 12.460808 +10 59 25.73630
 2018-Nov-11 11:33     10 26 12.503241 +10 59 25.46371
 2018-Nov-11 11:34     10 26 12.545670 +10 59 25.19112
 2018-Nov-11 11:35     10 26 12.588095 +10 59 24.91854
 2018-Nov-11 11:36     10 26 12.630517 +10 59 24.64595
 2018-Nov-11 11:37     10 26 12.672934 +10 59 24.37337
 2018-Nov-11 11:38     10 26 12.715348 +10 59 24.10079
 2018-Nov-11 11:39     10 26 12.757757 +10 59 23.82821
 2018-Nov-11 11:40     10 26 12.800163 +10 59 23.55562
 2018-Nov-11 11:41     10 26 12.842565 +10 59 23.28304
 2018-Nov-11 11:42     10 26 12.884962 +10 59 23.01046
 2018-Nov-11 11:43     10 26 12.927356 +10 59 22.73789
 2018-Nov-11 11:44     10 26 12.969746 +10 59 22.46531
 2018-Nov-11 11:45     10 26 13.012132 +10 59 22.19273
 2018-Nov-11 11:46     10 26 13.054515 +10 59 21.92015
 2018-Nov-11 11:47     10 26 13.096893 +10 59 21.64758
 2018-Nov-11 11:48     10 26 13.139267 +10 59 21.37500
 2018-Nov-11 11:49     10 26 13.181637 +10 59 21.10242
 2018-Nov-11 11:50     10 26 13.224004 +10 59 20.82985
 2018-Nov-11 11:51     10 26 13.266366 +10 59 20.55727
 2018-Nov-11 11:52     10 26 13.308725 +10 59 20.28470
 2018-Nov-11 11:53     10 26 13.351080 +10 59 20.01212
 2018-Nov-11 11:54     10 26 13.393431 +10 59 19.73955
 2018-Nov-11 11:55     10 26 13.435777 +10 59 19.46697
 2018-Nov-11 11:56     10 26 13.478120 +10 59 19.19440
 2018-Nov-11 11:57     10 26 13.520460 +10 59 18.92183
 2018-Nov-11 11:58     10 26 13.562795 +10 59 18.64925
 2018-Nov-11 11:59     10 26 13.605126 +10 59 18.37668
 2018-Nov-11 12:00     10 26 13.647453 +10 59 18.10410
 2018-Nov-11 12:01     10 26 13.689777 +10 59 17.83153
 2018-Nov-11 12:02     10 26 13.732097 +10 59 17.55895
 2018-Nov-11 12:03     10 26 13.774412 +10 59 17.28638
 2018-Nov-11 12:04     10 26 13.816724 +10 59 17.01380
